{
  "type": "FeatureCollection",
  "features": [
    {
      "type": "Feature",
      "properties": {
        "norad_id": 38833,
        "name": "GPS BIIF-3  (PRN 24)",
        "group": "gps-ops",
        "lat": 9.456871363144325,
        "lon": 158.21335310678225,
        "alt_km": 19890.034693884973,
        "timestamp": "2025-12-14T20:40:32.030326+00:00",
        "meta_object_name": "GPS BIIF-3  (PRN 24)",
        "meta_object_id": "2012-053A",
        "meta_epoch": "2025-12-13T20:21:34.724448",
        "meta_mean_motion": 2.00565042,
        "meta_eccentricity": 0.01758819,
        "meta_inclination": 53.5579,
        "meta_ra_of_asc_node": 151.1931,
        "meta_arg_of_pericenter": 64.0051,
        "meta_mean_anomaly": 297.7998,
        "meta_ephemeris_type": 0,
        "meta_classification_type": "U",
        "meta_norad_cat_id": 38833,
        "meta_element_set_no": 999,
        "meta_rev_at_epoch": 9572,
        "meta_bstar": 0,
        "meta_mean_motion_dot": 9.2e-07,
        "meta_mean_motion_ddot": 0,
        "tle_line1": "1 38833U 12053A   25347.84831857  .00000092  00000+0  00000+0 0  9990",
        "tle_line2": "2 38833  53.5579 151.1931 0175881  64.0051 297.7998  2.00565042 95726"
      },
      "geometry": {
        "type": "Point",
        "coordinates": [
          158.21335310678225,
          9.456871363144325
        ]
      }
    },
    {
      "type": "Feature",
      "properties": {
        "norad_id": 39166,
        "name": "GPS BIIF-4  (PRN 27)",
        "group": "gps-ops",
        "lat": 48.965243439130326,
        "lon": 41.933059720877004,
        "alt_km": 20010.433572846745,
        "timestamp": "2025-12-14T20:40:32.030341+00:00",
        "meta_object_name": "GPS BIIF-4  (PRN 27)",
        "meta_object_id": "2013-023A",
        "meta_epoch": "2025-12-13T05:07:46.586496",
        "meta_mean_motion": 2.0056518,
        "meta_eccentricity": 0.01379131,
        "meta_inclination": 54.6516,
        "meta_ra_of_asc_node": 276.5489,
        "meta_arg_of_pericenter": 48.6136,
        "meta_mean_anomaly": 312.5751,
        "meta_ephemeris_type": 0,
        "meta_classification_type": "U",
        "meta_norad_cat_id": 39166,
        "meta_element_set_no": 999,
        "meta_rev_at_epoch": 9215,
        "meta_bstar": 0,
        "meta_mean_motion_dot": -7.6e-07,
        "meta_mean_motion_ddot": 0,
        "tle_line1": "1 39166U 13023A   25347.21373364 -.00000076  00000+0  00000+0 0  9996",
        "tle_line2": "2 39166  54.6516 276.5489 0137913  48.6136 312.5751  2.00565180 92155"
      },
      "geometry": {
        "type": "Point",
        "coordinates": [
          41.933059720877004,
          48.965243439130326
        ]
      }
    },
    {
      "type": "Feature",
      "properties": {
        "norad_id": 39533,
        "name": "GPS BIIF-5  (PRN 30)",
        "group": "gps-ops",
        "lat": 47.940757221150314,
        "lon": -77.95409938947036,
        "alt_km": 20259.222750246015,
        "timestamp": "2025-12-14T20:40:32.030365+00:00",
        "meta_object_name": "GPS BIIF-5  (PRN 30)",
        "meta_object_id": "2014-008A",
        "meta_epoch": "2025-12-13T16:57:00.836352",
        "meta_mean_motion": 2.00574526,
        "meta_eccentricity": 0.00792524,
        "meta_inclination": 53.6313,
        "meta_ra_of_asc_node": 156.8852,
        "meta_arg_of_pericenter": 226.5204,
        "meta_mean_anomaly": 132.8312,
        "meta_ephemeris_type": 0,
        "meta_classification_type": "U",
        "meta_norad_cat_id": 39533,
        "meta_element_set_no": 999,
        "meta_rev_at_epoch": 8596,
        "meta_bstar": 0,
        "meta_mean_motion_dot": 9.8e-07,
        "meta_mean_motion_ddot": 0,
        "tle_line1": "1 39533U 14008A   25347.70625968  .00000098  00000+0  00000+0 0  9995",
        "tle_line2": "2 39533  53.6313 156.8852 0079252 226.5204 132.8312  2.00574526 85966"
      },
      "geometry": {
        "type": "Point",
        "coordinates": [
          -77.95409938947036,
          47.940757221150314
        ]
      }
    },
    {
      "type": "Feature",
      "properties": {
        "norad_id": 39741,
        "name": "GPS BIIF-6  (PRN 06)",
        "group": "gps-ops",
        "lat": -56.55073890766453,
        "lon": -113.31472689908465,
        "alt_km": 20120.889531954905,
        "timestamp": "2025-12-14T20:40:32.030387+00:00",
        "meta_object_name": "GPS BIIF-6  (PRN 06)",
        "meta_object_id": "2014-026A",
        "meta_epoch": "2025-12-13T23:45:04.300704",
        "meta_mean_motion": 2.00561334,
        "meta_eccentricity": 0.00392152,
        "meta_inclination": 56.5831,
        "meta_ra_of_asc_node": 338.7277,
        "meta_arg_of_pericenter": 318.7582,
        "meta_mean_anomaly": 40.9585,
        "meta_ephemeris_type": 0,
        "meta_classification_type": "U",
        "meta_norad_cat_id": 39741,
        "meta_element_set_no": 999,
        "meta_rev_at_epoch": 8482,
        "meta_bstar": 0,
        "meta_mean_motion_dot": -8.7e-07,
        "meta_mean_motion_ddot": 0,
        "tle_line1": "1 39741U 14026A   25347.98963311 -.00000087  00000+0  00000+0 0  9992",
        "tle_line2": "2 39741  56.5831 338.7277 0039215 318.7582  40.9585  2.00561334 84822"
      },
      "geometry": {
        "type": "Point",
        "coordinates": [
          -113.31472689908465,
          -56.55073890766453
        ]
      }
    },
    {
      "type": "Feature",
      "properties": {
        "norad_id": 40105,
        "name": "GPS BIIF-7  (PRN 09)",
        "group": "gps-ops",
        "lat": -22.021644688853467,
        "lon": -67.89297288247127,
        "alt_km": 20179.837913667623,
        "timestamp": "2025-12-14T20:40:32.030409+00:00",
        "meta_object_name": "GPS BIIF-7  (PRN 09)",
        "meta_object_id": "2014-045A",
        "meta_epoch": "2025-12-12T01:59:18.865536",
        "meta_mean_motion": 2.00572516,
        "meta_eccentricity": 0.00326941,
        "meta_inclination": 55.2287,
        "meta_ra_of_asc_node": 95.9251,
        "meta_arg_of_pericenter": 119.8618,
        "meta_mean_anomaly": 240.4523,
        "meta_ephemeris_type": 0,
        "meta_classification_type": "U",
        "meta_norad_cat_id": 40105,
        "meta_element_set_no": 999,
        "meta_rev_at_epoch": 8232,
        "meta_bstar": 0,
        "meta_mean_motion_dot": -9e-08,
        "meta_mean_motion_ddot": 0,
        "tle_line1": "1 40105U 14045A   25346.08285724 -.00000009  00000+0  00000+0 0  9998",
        "tle_line2": "2 40105  55.2287  95.9251 0032694 119.8618 240.4523  2.00572516 82323"
      },
      "geometry": {
        "type": "Point",
        "coordinates": [
          -67.89297288247127,
          -22.021644688853467
        ]
      }
    },
    {
      "type": "Feature",
      "properties": {
        "norad_id": 40294,
        "name": "GPS BIIF-8  (PRN 03)",
        "group": "gps-ops",
        "lat": -49.5376882824839,
        "lon": -11.852115639222871,
        "alt_km": 20300.270624650177,
        "timestamp": "2025-12-14T20:40:32.030421+00:00",
        "meta_object_name": "GPS BIIF-8  (PRN 03)",
        "meta_object_id": "2014-068A",
        "meta_epoch": "2025-12-13T10:57:14.379552",
        "meta_mean_motion": 2.00564944,
        "meta_eccentricity": 0.00607799,
        "meta_inclination": 56.8584,
        "meta_ra_of_asc_node": 38.1182,
        "meta_arg_of_pericenter": 69.1634,
        "meta_mean_anomaly": 291.5378,
        "meta_ephemeris_type": 0,
        "meta_classification_type": "U",
        "meta_norad_cat_id": 40294,
        "meta_element_set_no": 999,
        "meta_rev_at_epoch": 8148,
        "meta_bstar": 0,
        "meta_mean_motion_dot": -9.5e-07,
        "meta_mean_motion_ddot": 0,
        "tle_line1": "1 40294U 14068A   25347.45641643 -.00000095  00000+0  00000+0 0  9995",
        "tle_line2": "2 40294  56.8584  38.1182 0060779  69.1634 291.5378  2.00564944 81488"
      },
      "geometry": {
        "type": "Point",
        "coordinates": [
          -11.852115639222871,
          -49.5376882824839
        ]
      }
    },
    {
      "type": "Feature",
      "properties": {
        "norad_id": 40534,
        "name": "GPS BIIF-9  (PRN 26)",
        "group": "gps-ops",
        "lat": -17.336321119635794,
        "lon": 45.320715570859534,
        "alt_km": 20457.24406215715,
        "timestamp": "2025-12-14T20:40:32.030433+00:00",
        "meta_object_name": "GPS BIIF-9  (PRN 26)",
        "meta_object_id": "2015-013A",
        "meta_epoch": "2025-12-13T14:04:23.865312",
        "meta_mean_motion": 2.00562579,
        "meta_eccentricity": 0.01070971,
        "meta_inclination": 53.1976,
        "meta_ra_of_asc_node": 211.8551,
        "meta_arg_of_pericenter": 38.5041,
        "meta_mean_anomaly": 322.3346,
        "meta_ephemeris_type": 0,
        "meta_classification_type": "U",
        "meta_norad_cat_id": 40534,
        "meta_element_set_no": 999,
        "meta_rev_at_epoch": 7810,
        "meta_bstar": 0,
        "meta_mean_motion_dot": 4.8e-07,
        "meta_mean_motion_ddot": 0,
        "tle_line1": "1 40534U 15013A   25347.58638733  .00000048  00000+0  00000+0 0  9990",
        "tle_line2": "2 40534  53.1976 211.8551 0107097  38.5041 322.3346  2.00562579 78102"
      },
      "geometry": {
        "type": "Point",
        "coordinates": [
          45.320715570859534,
          -17.336321119635794
        ]
      }
    }
  ]
}